[{"OBJECT_NAME":"IHOPSAT-TD","OBJECT_ID":"2019-089H","EPOCH":"2026-03-09T00:09:00.873504","MEAN_MOTION":15.11211987,"ECCENTRICITY":0.00040442,"INCLINATION":36.9662,"RA_OF_ASC_NODE":282.0238,"ARG_OF_PERICENTER":141.2084,"MEAN_ANOMALY":218.8952,"EPHEMERIS_TYPE":0,"CLASSIFICATION_TYPE":"U","NORAD_CAT_ID":44859,"ELEMENT_SET_NO":999,"REV_AT_EPOCH":34282,"BSTAR":0.00027431478,"MEAN_MOTION_DOT":4.62e-5,"MEAN_MOTION_DDOT":0},{"OBJECT_NAME":"UNKNOWN","OBJECT_ID":"","EPOCH":"2026-03-07T17:21:07.805664","MEAN_MOTION":15.09455608,"ECCENTRICITY":0.0009057,"INCLINATION":82.8696,"RA_OF_ASC_NODE":177.6495,"ARG_OF_PERICENTER":167.3062,"MEAN_ANOMALY":192.8398,"EPHEMERIS_TYPE":0,"CLASSIFICATION_TYPE":"U","NORAD_CAT_ID":87725,"ELEMENT_SET_NO":999,"REV_AT_EPOCH":64668,"BSTAR":0.0060116,"MEAN_MOTION_DOT":0.00097492,"MEAN_MOTION_DDOT":0}]
